DMSP 5D-3 F16 (USA 172) 
1 28054U 03048A   26064.31294979  .00000195  00000+0  12522-3 0  9995
2 28054  98.9997  87.4071 0008192  83.5516 287.4072 14.14460119154806
METEOSAT-9 (MSG-2)      
1 28912U 05049B   26064.07544802  .00000118  00000+0  00000+0 0  9996
2 28912   9.1265  55.1755 0001712 222.7266 317.8188  1.00277671  5959
DMSP 5D-3 F17 (USA 191) 
1 29522U 06050A   26064.29381737  .00000245  00000+0  14886-3 0  9999
2 29522  98.7413  72.9784 0010011 359.5758   0.5406 14.14961663997726
FENGYUN 3A              
1 32958U 08026A   26064.29468849  .00000161  00000+0  96918-4 0  9995
2 32958  98.6794   7.1251 0009786  69.6133 290.6093 14.19544776920666
GOES 14                 
1 35491U 09033A   26064.26651062  .00000119  00000+0  00000+0 0  9992
2 35491   1.4211  84.4101 0002301 300.2805  75.6316  1.00124871  5552
DMSP 5D-3 F18 (USA 210) 
1 35951U 09057A   26064.25706652  .00000359  00000+0  20915-3 0  9991
2 35951  98.8958  45.3014 0010877 180.8537 179.2620 14.14832680844891
EWS-G2 (GOES 15)        
1 36411U 10008A   26064.18725389  .00000013  00000+0  00000+0 0  9997
2 36411   1.0108  85.1296 0001932  19.6467 189.0339  1.00269479 58594
COMS 1                  
1 36744U 10032A   26063.90391825 -.00000352  00000+0  00000+0 0  9993
2 36744   4.5371  76.8626 0001200 285.2673 254.0982  1.00272186 50043
FENGYUN 3B              
1 37214U 10059A   26064.34596214  .00000298  00000+0  17732-3 0  9995
2 37214  98.9772 109.8553 0023004 119.9403 298.5268 14.14816298792741
SUOMI NPP               
1 37849U 11061A   26064.30269232  .00000152  00000+0  93115-4 0  9995
2 37849  98.7866   5.9403 0000397 272.7662  87.3468 14.19542164743703
METEOSAT-10 (MSG-3)     
1 38552U 12035B   26064.22673045 -.00000011  00000+0  00000+0 0  9992
2 38552   4.4256  61.4601 0002511 296.4567 246.9694  1.00277685 49810
METOP-B                 
1 38771U 12049A   26064.22157406  .00000172  00000+0  98496-4 0  9996
2 38771  98.6651 117.7299 0001200 290.4699  69.6349 14.21443047698494
INSAT-3D                
1 39216U 13038B   26064.26016903 -.00000347  00000+0  00000+0 0  9994
2 39216   1.6576  83.9021 0001733 243.9670  58.2745  1.00273114 46039
FENGYUN 3C              
1 39260U 13052A   26064.29399576  .00000158  00000+0  10177-3 0  9991
2 39260  98.4885  42.9955 0014036 326.4964  33.5322 14.15727322643865
METEOR-M 2              
1 40069U 14037A   26064.24869263  .00000338  00000+0  17374-3 0  9990
2 40069  98.5017  43.7237 0005656 351.1559   8.9518 14.21427262604550
HIMAWARI-8              
1 40267U 14060A   26064.24905831 -.00000284  00000+0  00000+0 0  9993
2 40267   0.0283 243.4839 0000746  89.7290  60.0808  1.00271783 41713
FENGYUN 2G              
1 40367U 14090A   26064.03250958 -.00000310  00000+0  00000+0 0  9997
2 40367   5.3757  74.0796 0001855 152.4589  47.6186  1.00274286 40955
METEOSAT-11 (MSG-4)     
1 40732U 15034A   26064.22855046  .00000054  00000+0  00000+0 0  9996
2 40732   2.9396  71.6758 0001804 270.6915 272.2545  1.00266359  6177
ELEKTRO-L 2             
1 41105U 15074A   26064.29511076 -.00000123  00000+0  00000+0 0  9992
2 41105   6.4333  71.8021 0003413 238.5441 304.4140  1.00270976 37467
INSAT-3DR               
1 41752U 16054A   26064.06333017 -.00000086  00000+0  00000+0 0  9999
2 41752   0.0489  96.2317 0013197 185.6547 337.6931  1.00272506 34773
HIMAWARI-9              
1 41836U 16064A   26064.24905831 -.00000283  00000+0  00000+0 0  9991
2 41836   0.0137 174.7942 0001199 197.6115  21.0158  1.00272099 34160
GOES 16                 
1 41866U 16071A   26064.27725734 -.00000099  00000+0  00000+0 0  9992
2 41866   0.1401  89.6705 0002464 221.2947 207.1543  1.00271815 34061
FENGYUN 4A              
1 41882U 16077A   26064.25117057 -.00000365  00000+0  00000+0 0  9993
2 41882   2.0582  81.4022 0007401 135.6917 159.8997  1.00278774 33889
CYGFM05                 
1 41884U 16078A   26063.87617522  .00028492  00000+0  45929-3 0  9998
2 41884  34.9567 228.9367 0007025 244.1727 115.8271 15.51893220512514
CYGFM04                 
1 41885U 16078B   26064.06434212  .00033005  00000+0  46958-3 0  9993
2 41885  34.9331 199.9369 0006124 279.9898  80.0135 15.55301579512749
CYGFM02                 
1 41886U 16078C   26063.71588627  .00092679  00000+0  12024-2 0  9993
2 41886  34.9412 199.2479 0007127 278.5121  81.4795 15.57542778512830
CYGFM01                 
1 41887U 16078D   26063.84040971  .00031667  00000+0  50226-3 0  9990
2 41887  34.9398 230.9847 0006755 236.4378 123.5700 15.52328650512457
CYGFM08                 
1 41888U 16078E   26063.82514442  .00032381  00000+0  48646-3 0  9995
2 41888  34.9433 213.0092 0008184 260.5946  99.3853 15.53806957512696
CYGFM07                 
1 41890U 16078G   26063.72965768  .00035481  00000+0  51978-3 0  9994
2 41890  34.9455 202.1182 0006666 280.0575  79.9396 15.54493592512706
CYGFM03                 
1 41891U 16078H   26063.76498219  .00036492  00000+0  53421-3 0  9999
2 41891  34.9407 203.8627 0005960 266.0807  93.9235 15.54513472512689
FENGYUN 3D              
1 43010U 17072A   26064.26663782  .00000495  00000+0  25564-3 0  9995
2 43010  99.0020  36.8703 0001804  21.7267 338.3984 14.19714419430247
NOAA 20 (JPSS-1)        
1 43013U 17073A   26064.24685596  .00000118  00000+0  76800-4 0  9996
2 43013  98.7688   4.6783 0001011 143.4453 216.6792 14.19534754429724
GOES 17                 
1 43226U 18022A   26064.20896369 -.00000191  00000+0  00000+0 0  9991
2 43226   0.6702  87.5386 0002204 223.0782 198.0411  1.00270294 29384
FENGYUN 2H              
1 43491U 18050A   26064.17100354 -.00000135  00000+0  00000+0 0  9992
2 43491   2.7627  80.3493 0001859 174.7166  48.4710  1.00272568 28396
METOP-C                 
1 43689U 18087A   26064.24611948  .00000167  00000+0  96028-4 0  9999
2 43689  98.6774 125.6944 0002181 106.0979 254.0438 14.21495340380064
GEO-KOMPSAT-2A          
1 43823U 18100A   26063.26502859  .00000000  00000+0  00000+0 0  9992
2 43823   0.0084  82.1864 0001750 326.5345 336.9688  1.00267019 26573
METEOR-M2 2             
1 44387U 19038A   26064.27920586  .00000625  00000+0  29051-3 0  9996
2 44387  98.9077  50.0697 0001157  12.0564 348.0642 14.24333560346503
ARKTIKA-M 1             
1 47719U 21016A   26061.82287547 -.00000108  00000+0  00000+0 0  9994
2 47719  63.2036  72.8571 7242814 269.4536  15.2019  2.00620868 36653
FENGYUN 3E              
1 49008U 21062A   26064.26260356  .00000411  00000+0  21422-3 0  9999
2 49008  98.7507  68.8254 0002428  50.6393 309.4998 14.19894644241834
GOES 18                 
1 51850U 22021A   26064.27084398  .00000088  00000+0  00000+0 0  9999
2 51850   0.0324  75.9838 0000707 326.9206  80.5919  1.00272473  5555
NOAA 21 (JPSS-2)        
1 54234U 22150A   26064.28161282  .00000126  00000+0  80448-4 0  9992
2 54234  98.7551   4.5981 0002565 114.3891 245.7553 14.19550784171809
METEOSAT-12 (MTG-I1)    
1 54743U 22170C   26064.22655712 -.00000016  00000+0  00000+0 0  9999
2 54743   0.7020  21.5116 0002095 286.3388 296.3697  1.00269628 11934
TIANMU-1 03             
1 55973U 23039A   26064.27825728  .00021159  00000+0  46544-3 0  9998
2 55973  97.5170 234.4486 0004018 113.7685 246.3985 15.44001850164786
TIANMU-1 04             
1 55974U 23039B   26064.30288420  .00022436  00000+0  48654-3 0  9998
2 55974  97.5104 233.6353 0004638 109.7765 250.3983 15.44409928164792
TIANMU-1 05             
1 55975U 23039C   26064.25467462  .00021738  00000+0  47907-3 0  9992
2 55975  97.5148 234.0772 0003782 131.0883 229.0692 15.43941394164763
TIANMU-1 06             
1 55976U 23039D   26064.30277181  .00022412  00000+0  48558-3 0  9999
2 55976  97.5161 234.6631 0004058 126.5829 233.5793 15.44439471164799
FENGYUN 3G              
1 56232U 23055A   26064.26233760  .00035551  00000+0  53662-3 0  9993
2 56232  49.9932 161.8592 0010709 353.1745   6.9076 15.54292480163854
METEOR-M2 3             
1 57166U 23091A   26064.32077792  .00000021  00000+0  28119-4 0  9992
2 57166  98.6223 121.3627 0005064 109.2244 250.9484 14.24037134139730
TIANMU-1 07             
1 57399U 23101A   26064.33118413  .00009070  00000+0  32353-3 0  9996
2 57399  97.2730 117.3772 0004544 146.0132 214.1400 15.29098186145770
TIANMU-1 08             
1 57400U 23101B   26064.30105369  .00000526  00000+0  21069-4 0  9992
2 57400  97.2724 117.1264 0006583 137.5497 222.6254 15.29263538145769
TIANMU-1 09             
1 57401U 23101C   26064.28245693  .00009707  00000+0  34579-3 0  9994
2 57401  97.2678 116.5868 0004990 148.0670 212.0874 15.29121369145767
TIANMU-1 10             
1 57402U 23101D   26064.25156821  .00007131  00000+0  25467-3 0  9991
2 57402  97.2757 117.4940 0006576 147.0722 213.0929 15.29127392145759
FENGYUN 3F              
1 57490U 23111A   26064.31907493  .00000108  00000+0  71207-4 0  9996
2 57490  98.6936 136.2261 0001314  81.9850 278.1476 14.19918312134124
ARKTIKA-M 2             
1 58584U 23198A   26062.08261615  .00000137  00000+0  00000+0 0  9997
2 58584  63.2203 166.1216 6876963 267.7841  18.8417  2.00614888 16194
TIANMU-1 11             
1 58645U 23205A   26064.28111300  .00008293  00000+0  32673-3 0  9999
2 58645  97.3546  87.5032 0009539  23.2224 336.9444 15.25807822121670
TIANMU-1 12             
1 58646U 23205B   26064.31331990  .00007952  00000+0  31431-3 0  9995
2 58646  97.3534  87.3149 0007304   9.9112 350.2269 15.25732592121664
TIANMU-1 13             
1 58647U 23205C   26064.27877744  .00008525  00000+0  33625-3 0  9997
2 58647  97.3561  87.5178 0006934 350.6299   9.4809 15.25780764121655
TIANMU-1 14             
1 58648U 23205D   26064.26328030  .00008509  00000+0  33581-3 0  9999
2 58648  97.3495  86.7754 0007847 353.8781   6.2360 15.25758237121655
TIANMU-1 19             
1 58660U 23208A   26064.28194481  .00012451  00000+0  43473-3 0  9991
2 58660  97.4388 180.2649 0004201 336.2015  23.9031 15.29721873121437
TIANMU-1 20             
1 58661U 23208B   26064.26968084  .00012921  00000+0  43466-3 0  9992
2 58661  97.4328 180.7818 0006507 342.5351  17.5665 15.30911195121510
TIANMU-1 21             
1 58662U 23208C   26064.27396942  .00014890  00000+0  47036-3 0  9996
2 58662  97.4382 183.0439 0006263 335.8468  24.2479 15.32904393121634
TIANMU-1 22             
1 58663U 23208D   26064.29849094  .00010955  00000+0  38732-3 0  9991
2 58663  97.4383 180.2953 0003483  10.0646 350.0663 15.29347209121444
TIANMU-1 15             
1 58700U 24004A   26064.32662091  .00008716  00000+0  34405-3 0  9997
2 58700  97.4662 250.5709 0007043   5.7251 354.4066 15.25756173119931
TIANMU-1 16             
1 58701U 24004B   26064.31020288  .00009471  00000+0  37324-3 0  9995
2 58701  97.4604 249.8808 0005553  11.6216 348.5149 15.25790715119936
TIANMU-1 17             
1 58702U 24004C   26064.29263747  .00008498  00000+0  33493-3 0  9993
2 58702  97.4636 250.3149 0004814  15.0144 345.1236 15.25825946119928
TIANMU-1 18             
1 58703U 24004D   26064.27765641  .00008851  00000+0  34926-3 0  9997
2 58703  97.4654 250.5108 0004220  16.4192 343.7182 15.25775569119924
INSAT-3DS               
1 58990U 24033A   26064.17161021 -.00000164  00000+0  00000+0 0  9990
2 58990   0.0539 262.9489 0002319  96.5331 307.2600  1.00270294 46027
METEOR-M2 4             
1 59051U 24039A   26064.28789074  .00000041  00000+0  37915-4 0  9994
2 59051  98.6900  24.9578 0008091 107.3344 252.8719 14.22416277104497
GOES 19                 
1 60133U 24119A   26064.28306403 -.00000257  00000+0  00000+0 0  9997
2 60133   0.0131 338.9704 0001059  46.7096 164.0397  1.00271818  5925
FENGYUN 3H              
1 65815U 25219A   26064.24489415  .00000150  00000+0  90785-4 0  9997
2 65815  98.6681   7.0853 0001375  64.4312 295.7006 14.19931311 22639
